{
  "type": "FeatureCollection",
  "features": [
    {
      "type": "Feature",
      "properties": {
        "norad_id": 37978,
        "name": "COSMOS 2251 DEB",
        "group": "cosmos-2251-debris",
        "lat": -21.422714566602913,
        "lon": -88.49795013209152,
        "alt_km": 302.311893054698,
        "timestamp": "2025-12-14T11:29:50.458327+00:00",
        "meta_object_name": "COSMOS 2251 DEB",
        "meta_object_id": "1993-036BQD",
        "meta_epoch": "2025-11-19T05:08:53.100672",
        "meta_mean_motion": 15.61137081,
        "meta_eccentricity": 0.00148985,
        "meta_inclination": 74.0238,
        "meta_ra_of_asc_node": 142.2198,
        "meta_arg_of_pericenter": 140.9849,
        "meta_mean_anomaly": 219.2448,
        "meta_ephemeris_type": 0,
        "meta_classification_type": "U",
        "meta_norad_cat_id": 37978,
        "meta_element_set_no": 999,
        "meta_rev_at_epoch": 8032,
        "meta_bstar": 0.0043958825,
        "meta_mean_motion_dot": 0.0039117,
        "meta_mean_motion_ddot": 0,
        "tle_line1": "1 37978U 93036BQD 25323.21450348  .00391170  00000+0  43959-2 0  9999",
        "tle_line2": "2 37978  74.0238 142.2198 0014898 140.9849 219.2448 15.61137081 80328"
      },
      "geometry": {
        "type": "Point",
        "coordinates": [
          -88.49795013209152,
          -21.422714566602913
        ]
      }
    },
    {
      "type": "Feature",
      "properties": {
        "norad_id": 37985,
        "name": "COSMOS 2251 DEB",
        "group": "cosmos-2251-debris",
        "lat": -28.776246016923846,
        "lon": 91.59617876766384,
        "alt_km": 793.8052963068294,
        "timestamp": "2025-12-14T11:29:50.458337+00:00",
        "meta_object_name": "COSMOS 2251 DEB",
        "meta_object_id": "1993-036BQL",
        "meta_epoch": "2025-12-13T11:06:24.185952",
        "meta_mean_motion": 14.35483406,
        "meta_eccentricity": 0.00208406,
        "meta_inclination": 74.0254,
        "meta_ra_of_asc_node": 264.4092,
        "meta_arg_of_pericenter": 26.9436,
        "meta_mean_anomaly": 333.2793,
        "meta_ephemeris_type": 0,
        "meta_classification_type": "U",
        "meta_norad_cat_id": 37985,
        "meta_element_set_no": 999,
        "meta_rev_at_epoch": 64927,
        "meta_bstar": 8.2613695e-05,
        "meta_mean_motion_dot": 2.12e-06,
        "meta_mean_motion_ddot": 0,
        "tle_line1": "1 37985U 93036BQL 25347.46277993  .00000212  00000+0  82614-4 0  9990",
        "tle_line2": "2 37985  74.0254 264.4092 0020840  26.9436 333.2793 14.35483406649273"
      },
      "geometry": {
        "type": "Point",
        "coordinates": [
          91.59617876766384,
          -28.776246016923846
        ]
      }
    },
    {
      "type": "Feature",
      "properties": {
        "norad_id": 37988,
        "name": "COSMOS 2251 DEB",
        "group": "cosmos-2251-debris",
        "lat": 56.575153107936835,
        "lon": 46.31758089719562,
        "alt_km": 614.2646325966634,
        "timestamp": "2025-12-14T11:29:50.458348+00:00",
        "meta_object_name": "COSMOS 2251 DEB",
        "meta_object_id": "1993-036BQP",
        "meta_epoch": "2025-12-13T02:32:08.304288",
        "meta_mean_motion": 14.68869924,
        "meta_eccentricity": 0.00633699,
        "meta_inclination": 74.0635,
        "meta_ra_of_asc_node": 23.3163,
        "meta_arg_of_pericenter": 60.7739,
        "meta_mean_anomaly": 299.9748,
        "meta_ephemeris_type": 0,
        "meta_classification_type": "U",
        "meta_norad_cat_id": 37988,
        "meta_element_set_no": 999,
        "meta_rev_at_epoch": 23401,
        "meta_bstar": 0.001172646,
        "meta_mean_motion_dot": 7.043e-05,
        "meta_mean_motion_ddot": 0,
        "tle_line1": "1 37988U 93036BQP 25347.10565167  .00007043  00000+0  11726-2 0  9990",
        "tle_line2": "2 37988  74.0635  23.3163 0063369  60.7739 299.9748 14.68869924234014"
      },
      "geometry": {
        "type": "Point",
        "coordinates": [
          46.31758089719562,
          56.575153107936835
        ]
      }
    },
    {
      "type": "Feature",
      "properties": {
        "norad_id": 37993,
        "name": "COSMOS 2251 DEB",
        "group": "cosmos-2251-debris",
        "lat": 36.67606222474667,
        "lon": -28.724307090625295,
        "alt_km": 695.6757324061527,
        "timestamp": "2025-12-14T11:29:50.458358+00:00",
        "meta_object_name": "COSMOS 2251 DEB",
        "meta_object_id": "1993-036BQU",
        "meta_epoch": "2025-12-09T05:51:24.736320",
        "meta_mean_motion": 14.59845478,
        "meta_eccentricity": 0.0022054,
        "meta_inclination": 74.0217,
        "meta_ra_of_asc_node": 173.5884,
        "meta_arg_of_pericenter": 262.4751,
        "meta_mean_anomaly": 97.3909,
        "meta_ephemeris_type": 0,
        "meta_classification_type": "U",
        "meta_norad_cat_id": 37993,
        "meta_element_set_no": 999,
        "meta_rev_at_epoch": 65266,
        "meta_bstar": 0.0017274,
        "meta_mean_motion_dot": 8.27e-05,
        "meta_mean_motion_ddot": 0,
        "tle_line1": "1 37993U 93036BQU 25343.24403630  .00008270  00000+0  17274-2 0  9990",
        "tle_line2": "2 37993  74.0217 173.5884 0022054 262.4751  97.3909 14.59845478652667"
      },
      "geometry": {
        "type": "Point",
        "coordinates": [
          -28.724307090625295,
          36.67606222474667
        ]
      }
    },
    {
      "type": "Feature",
      "properties": {
        "norad_id": 37994,
        "name": "COSMOS 2251 DEB",
        "group": "cosmos-2251-debris",
        "lat": 69.75305144245434,
        "lon": 41.578576775823514,
        "alt_km": 758.4598704123537,
        "timestamp": "2025-12-14T11:29:50.458368+00:00",
        "meta_object_name": "COSMOS 2251 DEB",
        "meta_object_id": "1993-036BQV",
        "meta_epoch": "2025-12-13T05:00:13.656960",
        "meta_mean_motion": 14.39625855,
        "meta_eccentricity": 0.00229391,
        "meta_inclination": 74.0362,
        "meta_ra_of_asc_node": 274.8228,
        "meta_arg_of_pericenter": 354.1693,
        "meta_mean_anomaly": 5.9191,
        "meta_ephemeris_type": 0,
        "meta_classification_type": "U",
        "meta_norad_cat_id": 37994,
        "meta_element_set_no": 999,
        "meta_rev_at_epoch": 77071,
        "meta_bstar": 0.00058855198,
        "meta_mean_motion_dot": 1.819e-05,
        "meta_mean_motion_ddot": 0,
        "tle_line1": "1 37994U 93036BQV 25347.20849140  .00001819  00000+0  58855-3 0  9994",
        "tle_line2": "2 37994  74.0362 274.8228 0022939 354.1693   5.9191 14.39625855770710"
      },
      "geometry": {
        "type": "Point",
        "coordinates": [
          41.578576775823514,
          69.75305144245434
        ]
      }
    },
    {
      "type": "Feature",
      "properties": {
        "norad_id": 37996,
        "name": "COSMOS 2251 DEB",
        "group": "cosmos-2251-debris",
        "lat": -10.366744395785501,
        "lon": 23.13366160945178,
        "alt_km": 936.1161826180214,
        "timestamp": "2025-12-14T11:29:50.458378+00:00",
        "meta_object_name": "COSMOS 2251 DEB",
        "meta_object_id": "1993-036BQX",
        "meta_epoch": "2025-11-16T18:35:00.708864",
        "meta_mean_motion": 14.09591608,
        "meta_eccentricity": 0.02219827,
        "meta_inclination": 74.0658,
        "meta_ra_of_asc_node": 248.8308,
        "meta_arg_of_pericenter": 5.4709,
        "meta_mean_anomaly": 354.8776,
        "meta_ephemeris_type": 0,
        "meta_classification_type": "U",
        "meta_norad_cat_id": 37996,
        "meta_element_set_no": 999,
        "meta_rev_at_epoch": 55769,
        "meta_bstar": 0.0096790999,
        "meta_mean_motion_dot": 0.00021331,
        "meta_mean_motion_ddot": 0,
        "tle_line1": "1 37996U 93036BQX 25320.77431376  .00021331  00000+0  96791-2 0  9998",
        "tle_line2": "2 37996  74.0658 248.8308 0221982   5.4709 354.8776 14.09591608557693"
      },
      "geometry": {
        "type": "Point",
        "coordinates": [
          23.13366160945178,
          -10.366744395785501
        ]
      }
    },
    {
      "type": "Feature",
      "properties": {
        "norad_id": 37998,
        "name": "COSMOS 2251 DEB",
        "group": "cosmos-2251-debris",
        "lat": 39.52995384411764,
        "lon": -114.4711529301136,
        "alt_km": 738.5985704376881,
        "timestamp": "2025-12-14T11:29:50.458388+00:00",
        "meta_object_name": "COSMOS 2251 DEB",
        "meta_object_id": "1993-036BQZ",
        "meta_epoch": "2025-12-07T01:34:33.386016",
        "meta_mean_motion": 14.45444842,
        "meta_eccentricity": 0.00199405,
        "meta_inclination": 74.0387,
        "meta_ra_of_asc_node": 245.6796,
        "meta_arg_of_pericenter": 320.6712,
        "meta_mean_anomaly": 39.2997,
        "meta_ephemeris_type": 0,
        "meta_classification_type": "U",
        "meta_norad_cat_id": 37998,
        "meta_element_set_no": 999,
        "meta_rev_at_epoch": 64205,
        "meta_bstar": 0.00093558552,
        "meta_mean_motion_dot": 3.277e-05,
        "meta_mean_motion_ddot": 0,
        "tle_line1": "1 37998U 93036BQZ 25341.06566419  .00003277  00000+0  93559-3 0  9991",
        "tle_line2": "2 37998  74.0387 245.6796 0019940 320.6712  39.2997 14.45444842642056"
      },
      "geometry": {
        "type": "Point",
        "coordinates": [
          -114.4711529301136,
          39.52995384411764
        ]
      }
    }
  ]
}